ONEWEB-0620             
1 55161U 23004X   24138.53569633  .00000488  00000+0  13402-2 0  9996
2 55161  87.8978 172.4305 0002186  80.2514 279.8860 13.11418104 66136
ONEWEB-0621             
1 55162U 23004Y   24138.48610694  .00000307  00000+0  83130-3 0  9991
2 55162  87.8971 172.4104 0001623  93.8325 266.2988 13.11296513 66131
ONEWEB-0622             
1 55163U 23004Z   24138.49170503 -.00000169  00000+0 -51218-3 0  9993
2 55163  87.8973 172.4247 0001876  66.4510 293.6815 13.11437040 66106
ONEWEB-0623             
1 55164U 23004AA  24137.75837901  .00000000  00000+0 -33183-4 0  9999
2 55164  87.9171 157.4407 0001600  68.0256 292.1045 13.17649149 67313
ONEWEB-0624             
1 55165U 23004AB  24138.50164174 -.00000324  00000+0 -93643-3 0  9995
2 55165  87.8933 142.0939 0001797  84.8231 275.3103 13.12445178 68270
ONEWEB-0625             
1 55166U 23004AC  24138.50666099  .00000106  00000+0  24084-3 0  9998
2 55166  87.9169 157.2912 0001943 100.6469 259.4881 13.17653065 67406
ONEWEB-0626             
1 55167U 23004AD  24138.49718126  .00000126  00000+0  29191-3 0  9992
2 55167  87.9169 157.2939 0002530  83.7733 276.3687 13.17651826 67409
ONEWEB-0627             
1 55168U 23004AE  24138.48609246  .00000099  00000+0  22193-3 0  9998
2 55168  87.9170 157.2973 0001879  68.9085 291.2247 13.17649952 67405
